{
    "links": {
        "self": "http://www.neowsapp.com/rest/v1/neo/3596494?api_key=iIulBulltgU6a56xZRHN4H3l9WmuAYTsLGpBGhQ2"
    },
    "id": "3596494",
    "neo_reference_id": "3596494",
    "name": "(2012 BY61)",
    "designation": "2012 BY61",
    "nasa_jpl_url": "http://ssd.jpl.nasa.gov/sbdb.cgi?sstr=3596494",
    "absolute_magnitude_h": 26.4,
    "estimated_diameter": {
        "kilometers": {
            "estimated_diameter_min": 0.0139493823,
            "estimated_diameter_max": 0.0311917671
        },
        "meters": {
            "estimated_diameter_min": 13.9493822934,
            "estimated_diameter_max": 31.1917670523
        },
        "miles": {
            "estimated_diameter_min": 0.0086677416,
            "estimated_diameter_max": 0.0193816595
        },
        "feet": {
            "estimated_diameter_min": 45.7656914036,
            "estimated_diameter_max": 102.3351970157
        }
    },
    "is_potentially_hazardous_asteroid": false,
    "close_approach_data": [
        {
            "close_approach_date": "2012-01-25",
            "close_approach_date_full": "2012-Jan-25 22:36",
            "epoch_date_close_approach": 1327530960000,
            "relative_velocity": {
                "kilometers_per_second": "14.0662016123",
                "kilometers_per_hour": "50638.3258043542",
                "miles_per_hour": "31464.6863866"
            },
            "miss_distance": {
                "astronomical": "0.0657224216",
                "lunar": "25.5660220024",
                "kilometers": "9831934.282601992",
                "miles": "6109280.6720998096"
            },
            "orbiting_body": "Earth"
        }
    ],
    "orbital_data": {
        "orbit_id": "4",
        "orbit_determination_date": "2017-04-06 08:51:13",
        "first_observation_date": "2012-01-26",
        "last_observation_date": "2012-01-27",
        "data_arc_in_days": 1,
        "observations_used": 15,
        "orbit_uncertainty": "9",
        "minimum_orbit_intersection": ".0653103",
        "jupiter_tisserand_invariant": "4.052",
        "epoch_osculation": "2455952.5",
        "eccentricity": ".376547698854422",
        "semi_major_axis": "1.683358801532769",
        "inclination": "24.30301073059081",
        "ascending_node_longitude": "124.9817747521268",
        "orbital_period": "797.7438558125739",
        "perihelion_distance": "1.049493918469267",
        "perihelion_argument": "357.2154668045204",
        "aphelion_distance": "2.317223684596271",
        "perihelion_time": "2455950.079841915314",
        "mean_anomaly": "1.092151201339566",
        "mean_motion": ".4512726702649532",
        "equinox": "J2000",
        "orbit_class": {
            "orbit_class_type": "AMO",
            "orbit_class_description": "Near-Earth asteroid orbits similar to that of 1221 Amor",
            "orbit_class_range": "1.017 AU < q (perihelion) < 1.3 AU"
        }
    },
    "is_sentry_object": false
}